{"type": "FeatureCollection", "features": [ {"type": "Feature", "properties": {"norad_id": 42917, "name": "QZS-3 (QZSS/PRN 199)", "group": "gnss", "lat": -0.07410963606916052, "lon": 162.413353750134, "alt_km": 35784.98625913223, "timestamp": "2025-12-02T21:34:01.514438+00:00", "meta": {"OBJECT_NAME": "QZS-3 (QZSS/PRN 199)", "OBJECT_ID": "2017-048A", "EPOCH": "2025-12-02T08:53:51.838368", "MEAN_MOTION": 1.00276438, "ECCENTRICITY": 0.000211, "INCLINATION": 0.0754, "RA_OF_ASC_NODE": 224.5611, "ARG_OF_PERICENTER": 28.6781, "MEAN_ANOMALY": 78.6565, "EPHEMERIS_TYPE": 0, "CLASSIFICATION_TYPE": "U", "NORAD_CAT_ID": 42917, "ELEMENT_SET_NO": 999, "REV_AT_EPOCH": 3028, "BSTAR": 0, "MEAN_MOTION_DOT": -3.27e-06, "MEAN_MOTION_DDOT": 0}, "tle": {"line1": "1 42917U 17048A   25336.37073887 -.00000327  00000+0  00000+0 0  9996", "line2": "2 42917   0.0754 224.5611 0002110  28.6781  78.6565  1.00276438 30289"}}, "geometry": {"type": "Point", "coordinates": [162.413353750134, -0.07410963606916052]}}, {"type": "Feature", "properties": {"norad_id": 42939, "name": "COSMOS 2522 (752)", "group": "gnss", "lat": -48.84408761292334, "lon": 164.76941467792656, "alt_km": 19131.809582968785, "timestamp": "2025-12-02T21:34:01.514450+00:00", "meta": {"OBJECT_NAME": "COSMOS 2522 (752)", "OBJECT_ID": "2017-055A", "EPOCH": "2025-12-02T00:49:19.068672", "MEAN_MOTION": 2.13101864, "ECCENTRICITY": 0.0006552, "INCLINATION": 64.0757, "RA_OF_ASC_NODE": 198.5937, "ARG_OF_PERICENTER": 226.1322, "MEAN_ANOMALY": 133.9083, "EPHEMERIS_TYPE": 0, "CLASSIFICATION_TYPE": "U", "NORAD_CAT_ID": 42939, "ELEMENT_SET_NO": 999, "REV_AT_EPOCH": 6377, "BSTAR": 0, "MEAN_MOTION_DOT": 1.06e-06, "MEAN_MOTION_DDOT": 0}, "tle": {"line1": "1 42939U 17055A   25336.03424848  .00000106  00000+0  00000+0 0  9992", "line2": "2 42939  64.0757 198.5937 0006552 226.1322 133.9083  2.13101864 63772"}}, "geometry": {"type": "Point", "coordinates": [164.76941467792656, -48.84408761292334]}}, {"type": "Feature", "properties": {"norad_id": 42965, "name": "QZS-4 (QZSS/PRN 195)", "group": "gnss", "lat": 1.295879967781411, "lon": 164.46817882148702, "alt_km": 35724.395925693025, "timestamp": "2025-12-02T21:34:01.514462+00:00", "meta": {"OBJECT_NAME": "QZS-4 (QZSS/PRN 195)", "OBJECT_ID": "2017-062A", "EPOCH": "2025-12-02T08:37:38.758368", "MEAN_MOTION": 1.0025504, "ECCENTRICITY": 0.0752468, "INCLINATION": 40.2317, "RA_OF_ASC_NODE": 346.0052, "ARG_OF_PERICENTER": 271.2474, "MEAN_ANOMALY": 80.8165, "EPHEMERIS_TYPE": 0, "CLASSIFICATION_TYPE": "U", "NORAD_CAT_ID": 42965, "ELEMENT_SET_NO": 999, "REV_AT_EPOCH": 2983, "BSTAR": 0, "MEAN_MOTION_DOT": -3.15e-06, "MEAN_MOTION_DDOT": 0}, "tle": {"line1": "1 42965U 17062A   25336.35947637 -.00000315  00000+0  00000+0 0  9993", "line2": "2 42965  40.2317 346.0052 0752468 271.2474  80.8165  1.00255040 29831"}}, "geometry": {"type": "Point", "coordinates": [164.46817882148702, 1.295879967781411]}}, {"type": "Feature", "properties": {"norad_id": 43001, "name": "BEIDOU-3 M1 (C19)", "group": "gnss", "lat": -12.565441460339972, "lon": -101.97011629590273, "alt_km": 21537.784785054962, "timestamp": "2025-12-02T21:34:01.514473+00:00", "meta": {"OBJECT_NAME": "BEIDOU-3 M1 (C19)", "OBJECT_ID": "2017-069A", "EPOCH": "2025-12-02T01:41:27.564288", "MEAN_MOTION": 1.86230781, "ECCENTRICITY": 0.00087764, "INCLINATION": 56.5176, "RA_OF_ASC_NODE": 69.587, "ARG_OF_PERICENTER": 303.6575, "MEAN_ANOMALY": 56.2612, "EPHEMERIS_TYPE": 0, "CLASSIFICATION_TYPE": "U", "NORAD_CAT_ID": 43001, "ELEMENT_SET_NO": 999, "REV_AT_EPOCH": 5492, "BSTAR": 0, "MEAN_MOTION_DOT": -4.4e-07, "MEAN_MOTION_DDOT": 0}, "tle": {"line1": "1 43001U 17069A   25336.07045792 -.00000044  00000+0  00000+0 0  9991", "line2": "2 43001  56.5176  69.5870 0008776 303.6575  56.2612  1.86230781 54920"}}, "geometry": {"type": "Point", "coordinates": [-101.97011629590273, -12.565441460339972]}}, {"type": "Feature", "properties": {"norad_id": 43002, "name": "BEIDOU-3 M2 (C20)", "group": "gnss", "lat": -44.0907405461203, "lon": -70.59568963183581, "alt_km": 21535.020222354182, "timestamp": "2025-12-02T21:34:01.514485+00:00", "meta": {"OBJECT_NAME": "BEIDOU-3 M2 (C20)", "OBJECT_ID": "2017-069B", "EPOCH": "2025-12-01T11:19:28.056000", "MEAN_MOTION": 1.86230616, "ECCENTRICITY": 0.00061649, "INCLINATION": 56.5166, "RA_OF_ASC_NODE": 69.6425, "ARG_OF_PERICENTER": 332.397, "MEAN_ANOMALY": 27.5733, "EPHEMERIS_TYPE": 0, "CLASSIFICATION_TYPE": "U", "NORAD_CAT_ID": 43002, "ELEMENT_SET_NO": 999, "REV_AT_EPOCH": 5491, "BSTAR": 0, "MEAN_MOTION_DOT": -4.1e-07, "MEAN_MOTION_DDOT": 0}, "tle": {"line1": "1 43002U 17069B   25335.47185250 -.00000041  00000+0  00000+0 0  9996", "line2": "2 43002  56.5166  69.6425 0006164 332.3970  27.5733  1.86230616 54915"}}, "geometry": {"type": "Point", "coordinates": [-70.59568963183581, -44.0907405461203]}}, {"type": "Feature", "properties": {"norad_id": 43055, "name": "GSAT0215 (GALILEO 19)", "group": "gnss", "lat": -44.13795314513651, "lon": 89.40378767920161, "alt_km": 23225.93096484784, "timestamp": "2025-12-02T21:34:01.514496+00:00", "meta": {"OBJECT_NAME": "GSAT0215 (GALILEO 19)", "OBJECT_ID": "2017-079A", "EPOCH": "2025-11-29T13:52:03.216864", "MEAN_MOTION": 1.70473718, "ECCENTRICITY": 0.0001588, "INCLINATION": 55.1353, "RA_OF_ASC_NODE": 227.0004, "ARG_OF_PERICENTER": 310.5234, "MEAN_ANOMALY": 49.536, "EPHEMERIS_TYPE": 0, "CLASSIFICATION_TYPE": "U", "NORAD_CAT_ID": 43055, "ELEMENT_SET_NO": 999, "REV_AT_EPOCH": 4958, "BSTAR": 0, "MEAN_MOTION_DOT": 2.7e-07, "MEAN_MOTION_DDOT": 0}, "tle": {"line1": "1 43055U 17079A   25333.57781501  .00000027  00000+0  00000+0 0  9998", "line2": "2 43055  55.1353 227.0004 0001588 310.5234  49.5360  1.70473718 49587"}}, "geometry": {"type": "Point", "coordinates": [89.40378767920161, -44.13795314513651]}}, {"type": "Feature", "properties": {"norad_id": 43056, "name": "GSAT0216 (GALILEO 20)", "group": "gnss", "lat": 44.876107093407256, "lon": -89.20987908103893, "alt_km": 23219.112430114965, "timestamp": "2025-12-02T21:34:01.514512+00:00", "meta": {"OBJECT_NAME": "GSAT0216 (GALILEO 20)", "OBJECT_ID": "2017-079B", "EPOCH": "2025-12-01T01:00:54.249120", "MEAN_MOTION": 1.70473856, "ECCENTRICITY": 0.00027137, "INCLINATION": 55.1346, "RA_OF_ASC_NODE": 226.9601, "ARG_OF_PERICENTER": 312.5245, "MEAN_ANOMALY": 47.5297, "EPHEMERIS_TYPE": 0, "CLASSIFICATION_TYPE": "U", "NORAD_CAT_ID": 43056, "ELEMENT_SET_NO": 999, "REV_AT_EPOCH": 4962, "BSTAR": 0, "MEAN_MOTION_DOT": 3.1e-07, "MEAN_MOTION_DDOT": 0}, "tle": {"line1": "1 43056U 17079B   25335.04229455  .00000031  00000+0  00000+0 0  9993", "line2": "2 43056  55.1346 226.9601 0002713 312.5245  47.5297  1.70473856 49621"}}, "geometry": {"type": "Point", "coordinates": [-89.20987908103893, 44.876107093407256]}}, {"type": "Feature", "properties": {"norad_id": 43057, "name": "GSAT0217 (GALILEO 21)", "group": "gnss", "lat": -52.849228569514416, "lon": 160.14798479890828, "alt_km": 23223.539304877966, "timestamp": "2025-12-02T21:34:01.514524+00:00", "meta": {"OBJECT_NAME": "GSAT0217 (GALILEO 21)", "OBJECT_ID": "2017-079C", "EPOCH": "2025-11-29T12:04:41.145600", "MEAN_MOTION": 1.70473704, "ECCENTRICITY": 0.00027563, "INCLINATION": 55.1326, "RA_OF_ASC_NODE": 227.0006, "ARG_OF_PERICENTER": 340.6935, "MEAN_ANOMALY": 19.3693, "EPHEMERIS_TYPE": 0, "CLASSIFICATION_TYPE": "U", "NORAD_CAT_ID": 43057, "ELEMENT_SET_NO": 999, "REV_AT_EPOCH": 4958, "BSTAR": 0, "MEAN_MOTION_DOT": 2.7e-07, "MEAN_MOTION_DDOT": 0}, "tle": {"line1": "1 43057U 17079C   25333.50325400  .00000027  00000+0  00000+0 0  9995", "line2": "2 43057  55.1326 227.0006 0002756 340.6935  19.3693  1.70473704 49580"}}, "geometry": {"type": "Point", "coordinates": [160.14798479890828, -52.849228569514416]}}, {"type": "Feature", "properties": {"norad_id": 43058, "name": "GSAT0218 (GALILEO 22)", "group": "gnss", "lat": 25.190868311984286, "lon": 27.791105961253113, "alt_km": 23227.043214893245, "timestamp": "2025-12-02T21:34:01.514584+00:00", "meta": {"OBJECT_NAME": "GSAT0218 (GALILEO 22)", "OBJECT_ID": "2017-079D", "EPOCH": "2025-11-30T07:26:14.163360", "MEAN_MOTION": 1.70473798, "ECCENTRICITY": 0.0002943, "INCLINATION": 55.1332, "RA_OF_ASC_NODE": 226.9759, "ARG_OF_PERICENTER": 303.6931, "MEAN_ANOMALY": 56.3534, "EPHEMERIS_TYPE": 0, "CLASSIFICATION_TYPE": "U", "NORAD_CAT_ID": 43058, "ELEMENT_SET_NO": 999, "REV_AT_EPOCH": 4962, "BSTAR": 0, "MEAN_MOTION_DOT": 2.9e-07, "MEAN_MOTION_DDOT": 0}, "tle": {"line1": "1 43058U 17079D   25334.30988615  .00000029  00000+0  00000+0 0  9990", "line2": "2 43058  55.1332 226.9759 0002943 303.6931  56.3534  1.70473798 49627"}}, "geometry": {"type": "Point", "coordinates": [27.791105961253113, 25.190868311984286]}}, {"type": "Feature", "properties": {"norad_id": 43107, "name": "BEIDOU-3 M7 (C27)", "group": "gnss", "lat": 37.76377010269019, "lon": -17.31377351353964, "alt_km": 21516.614056789895, "timestamp": "2025-12-02T21:34:01.514600+00:00", "meta": {"OBJECT_NAME": "BEIDOU-3 M7 (C27)", "OBJECT_ID": "2018-003A", "EPOCH": "2025-12-02T06:56:05.635968", "MEAN_MOTION": 1.86232265, "ECCENTRICITY": 0.0002591, "INCLINATION": 54.5061, "RA_OF_ASC_NODE": 309.1785, "ARG_OF_PERICENTER": 70.8685, "MEAN_ANOMALY": 289.1495, "EPHEMERIS_TYPE": 0, "CLASSIFICATION_TYPE": "U", "NORAD_CAT_ID": 43107, "ELEMENT_SET_NO": 999, "REV_AT_EPOCH": 5368, "BSTAR": 0, "MEAN_MOTION_DOT": -6.3e-07, "MEAN_MOTION_DDOT": 0}, "tle": {"line1": "1 43107U 18003A   25336.28895412 -.00000063  00000+0  00000+0 0  9993", "line2": "2 43107  54.5061 309.1785 0002591  70.8685 289.1495  1.86232265 53687"}}, "geometry": {"type": "Point", "coordinates": [-17.31377351353964, 37.76377010269019]}}]}